OBJECT_NAME,OBJECT_ID,EPOCH,MEAN_MOTION,ECCENTRICITY,INCLINATION,RA_OF_ASC_NODE,ARG_OF_PERICENTER,MEAN_ANOMALY,EPHEMERIS_TYPE,CLASSIFICATION_TYPE,NORAD_CAT_ID,ELEMENT_SET_NO,REV_AT_EPOCH,BSTAR,MEAN_MOTION_DOT,MEAN_MOTION_DDOT
CUBEBUG-2 (LO-74),2013-066AA,2026-07-15T20:45:32.623488,14.93969667,.00556307,97.8915,145.9709,293.0759,66.4601,0,U,39440,999,68127,.19551178E-3,.2083E-4,0
FUNCUBE-1 (AO-73),2013-066AE,2026-07-15T21:20:20.419872,15.09822727,.00379895,97.8290,168.9436,105.4335,255.1095,0,U,39444,999,68399,.22786592E-3,.3677E-4,0
UWE-3,2013-066AG,2026-07-15T19:42:56.271168,14.97201399,.00475492,97.8715,153.0945,222.4036,137.3508,0,U,39446,999,68186,.1702564E-3,.1951E-4,0
UNISAT-6,2014-033C,2026-07-15T23:24:42.966720,14.88368249,.0044121,97.7909,349.1880,335.1542,24.7549,0,U,40012,999,65044,.12208E-3,.1093E-4,0
DUCHIFAT-1,2014-033M,2026-07-16T03:00:49.893408,15.71200075,.000277,98.0416,260.5020,239.6354,120.4633,0,U,40021,999,66028,.6852E-3,.87055E-3,0
QB50P1,2014-033R,2026-07-16T00:18:33.707232,15.18673121,.0010382,98.0963,210.1890,122.1904,238.0337,0,U,40025,999,65740,.20193E-3,.4113E-4,0
LILACSAT-2,2015-049K,2026-07-16T03:48:18.360576,15.52381660,.0008452,97.4621,235.1150,138.6421,221.5472,0,U,40908,999,60024,.1883E-3,.114E-3,0
FOX-1A (AO-85),2015-058D,2026-07-15T09:19:38.094240,14.91088896,.01323818,64.7725,191.3328,45.7352,315.4532,0,U,40967,999,11777,.15413123E-3,.1629E-4,0
CAS-2T & KS-1Q,2016-066G,2026-07-16T04:33:34.557120,14.44771379,.0342197,98.3813,272.5943,41.7454,320.9310,0,U,41847,999,50898,.76375E-4,.484E-5,0
RADFXSAT (FOX-1B),2017-073E,2026-07-16T02:39:55.628064,15.13068475,.0148313,97.4663,63.7367,228.2807,130.5662,0,U,43017,999,46976,.18898E-3,.4305E-4,0
DIWATA-2B,2018-084H,2026-07-16T04:16:07.144608,15.00565471,.0012781,98.1210,34.6556,81.2808,278.9861,0,U,43678,999,42056,.91098E-4,.1085E-4,0
ES'HAIL 2,2018-090A,2026-07-16T03:10:42.041856,1.00271422,.0002244,0.0162,52.8723,106.1262,208.4198,0,U,43700,999,2796,0,.133E-5,0
FOX-1CLIFF (AO-95),2018-099N,2026-07-16T02:34:24.544128,15.27285234,.0007323,97.4366,257.2560,235.9460,124.1084,0,U,43770,999,41763,.24333E-3,.6434E-4,0
ITASAT,2018-099AE,2026-07-16T03:12:48.947040,15.19388606,.0010922,97.4011,248.0717,246.7548,113.2537,0,U,43786,999,41730,.15784E-3,.3276E-4,0
JY1SAT (JO-97),2018-099AX,2026-07-16T02:55:00.104736,15.34537200,.0007052,97.4113,260.0715,155.8355,204.3220,0,U,43803,999,41806,.28493E-3,.9462E-4,0
UWE-4,2018-111E,2026-07-15T08:27:21.725856,15.47824446,.00062889,97.5850,126.0767,193.5981,166.5100,0,U,43880,999,41513,.39288701E-3,.2035E-3,0
TIANYAN 01,2019-093C,2026-07-16T04:34:31.636416,14.86559970,.0013509,97.7526,268.7141,358.3372,1.7797,0,U,44881,999,35572,-.13049E-4,-.169E-5,0
RS-44 & BREEZE-KM R/B,2019-096E,2026-07-15T20:29:30.581952,12.79748942,.0218528,82.5242,320.6567,77.4585,285.0863,0,U,44909,999,30601,-.14274E-4,.9E-7,0
SALSAT,2020-068K,2026-07-15T23:41:54.574080,15.30178734,.0009305,97.8856,201.8148,189.9449,170.1607,0,U,46495,999,31976,.14039E-3,.4018E-4,0
XW-3 (CAS-9),2021-131B,2026-07-16T05:02:58.271424,14.41382214,.0004529,98.4994,289.4434,28.0041,332.1390,0,U,50466,999,23929,.83689E-4,.227E-5,0
GREENCUBE (IO-117),2022-080E,2026-07-15T04:46:20.871552,6.42583355,.00090693,70.1411,288.5050,283.3508,76.6141,0,U,53109,999,9386,0,-.3E-7,0
UMKA 1 (RS40S),2023-091G,2026-07-16T04:08:34.878624,15.21126943,.0012958,97.5034,255.7617,26.3119,333.8771,0,U,57172,999,16841,.13904E-3,.303E-4,0
CUBESX-HSE 3 (RS42S),2023-091N,2026-07-16T04:22:25.459968,15.31898058,.0009563,97.5076,263.1477,358.4487,1.6723,0,U,57178,999,16886,.22132E-3,.6745E-4,0
MONITOR-3 (RS58S),2023-091Q,2026-07-16T03:23:12.106176,15.28383529,.0010899,97.5068,260.8083,6.4418,353.6959,0,U,57180,999,16871,.20652E-3,.5639E-4,0
MONITOR-4 (RS57S),2023-091S,2026-07-16T04:24:59.525856,15.28469991,.001087,97.5062,260.8243,6.6032,353.5348,0,U,57182,999,16872,.19639E-3,.5373E-4,0
MONITOR-2 (RS39S),2023-091U,2026-07-16T03:57:34.894944,15.19158998,.0011297,97.5055,255.2626,20.8193,339.3499,0,U,57184,999,16835,.12017E-3,.246E-4,0
SVYATOBOR 1 (RS60S),2023-091X,2026-07-16T03:46:34.314240,15.27072520,.0008658,97.5075,261.1414,1.0704,359.0552,0,U,57187,999,16873,.18056E-3,.4724E-4,0
VIZARD-METEO (RS38S),2023-091Z,2026-07-16T04:38:58.151904,15.36892541,.0005568,97.5078,267.2765,335.3257,24.7719,0,U,57189,999,16914,.24768E-3,.8854E-4,0
POLYTECH-UNIVERSE 3 (RS46S),2023-091AB,2026-07-16T04:31:03.426240,15.19371515,.0015998,97.5032,254.7899,34.4917,325.7352,0,U,57191,999,16835,.11864E-3,.2447E-4,0
UTMN 2 (RS27S),2023-091AP,2026-07-16T04:25:15.693024,15.32715186,.0006624,97.5072,264.8186,346.3814,13.7248,0,U,57203,999,16898,.20774E-3,.6486E-4,0
